STARLINK-32816          
1 63050U 25034X   25282.22007018  .00034269  00000+0  11640-2 0  9994
2 63050  53.1577 254.6410 0001211  88.1857 271.9283 15.30194159 35714
STARLINK-32835          
1 63051U 25034Y   25282.29277549  .00000959  00000+0  44539-4 0  9994
2 63051  53.1569 254.3899 0001253  89.7382 270.3762 15.30178045 35722
STARLINK-11550 [DTC]    
1 63052U 25035A   25282.17346516  .00179482  00000+0  13711-2 0  9998
2 63052  42.9989 208.4231 0001477 252.0240 108.0467 15.70860469 37397
STARLINK-11563 [DTC]    
1 63053U 25035B   25281.98802001  .00196527  00000+0  14967-2 0  9996
2 63053  43.0001 209.6180 0001717 259.4027 100.6648 15.70878124 37253
STARLINK-11347 [DTC]    
1 63054U 25035C   25281.95629208  .00198820  00000+0  15153-2 0  9996
2 63054  43.0014 210.2542 0003787 288.5853  71.4603 15.70848996 37358
STARLINK-11558 [DTC]    
1 63055U 25035D   25282.15753391  .00212475  00000+0  16139-2 0  9999
2 63055  42.9991 208.2947 0002128 277.4683  82.5943 15.70891394 37285
STARLINK-11392 [DTC]    
1 63056U 25035E   25282.20000829  .00172639  00000+0  13202-2 0  9992
2 63056  43.0004 208.6362 0002198 258.0007 102.0614 15.70856151 37397
STARLINK-11406 [DTC]    
1 63057U 25035F   25282.18408597  .00188401  00000+0  14378-2 0  9993
2 63057  43.0006 208.5076 0001035 271.6903  88.3846 15.70855592 37274
STARLINK-11418 [DTC]    
1 63058U 25035G   25282.27952440  .00166762  00000+0  12759-2 0  9992
2 63058  42.9991 208.3804 0001257 286.8722  73.2008 15.70865241 37282
STARLINK-11509 [DTC]    
1 63059U 25035H   25282.07815198  .00490229  00000+0  35531-2 0  9990
2 63059  43.0001 209.4423 0002321 226.2273 133.8403 15.71174989 37250
STARLINK-11403 [DTC]    
1 63060U 25035J   25281.17735508  .00227496  00000+0  17214-2 0  9990
2 63060  43.0028 214.7231 0002673 278.0001  82.0563 15.70934374 37232
STARLINK-11409 [DTC]    
1 63061U 25035K   25282.20092168  .00150689  00000+0  11562-2 0  9993
2 63061  43.0001 208.6394 0001675 277.4484  82.6193 15.70849260 37396
STARLINK-11412 [DTC]    
1 63062U 25035L   25282.18938905  .00342483  00000+0  25540-2 0  9995
2 63062  43.0003 208.5446 0002322 256.7413 103.3196 15.70933838 37397
STARLINK-11399 [DTC]    
1 63063U 25035M   25282.10456932  .00182605  00000+0  13936-2 0  9997
2 63063  43.0005 208.7573 0001733 266.4169  93.6500 15.70872426 37388
STARLINK-11408 [DTC]    
1 63064U 25035N   25282.09926131  .00288271  00000+0  21746-2 0  9993
2 63064  43.0006 208.7139 0001554 275.5605  84.5085 15.70823327 37388
STARLINK-33635          
1 63065U 25035P   25282.27805454  .00030628  00000+0  11182-2 0  9992
2 63065  43.0007 282.1451 0001320 267.4732  92.5969 15.27570786 36575
