[{"OBJECT_NAME":"STARLINK-32816","OBJECT_ID":"2025-034X","EPOCH":"2025-10-09T05:16:54.063552","MEAN_MOTION":15.30194159,"ECCENTRICITY":0.00012117,"INCLINATION":53.1577,"RA_OF_ASC_NODE":254.641,"ARG_OF_PERICENTER":88.1857,"MEAN_ANOMALY":271.9283,"EPHEMERIS_TYPE":0,"CLASSIFICATION_TYPE":"U","NORAD_CAT_ID":63050,"ELEMENT_SET_NO":999,"REV_AT_EPOCH":3571,"BSTAR":0.001164024,"MEAN_MOTION_DOT":0.00034269,"MEAN_MOTION_DDOT":0},{"OBJECT_NAME":"STARLINK-32835","OBJECT_ID":"2025-034Y","EPOCH":"2025-10-09T07:01:35.802336","MEAN_MOTION":15.30178045,"ECCENTRICITY":0.0001253,"INCLINATION":53.1569,"RA_OF_ASC_NODE":254.3899,"ARG_OF_PERICENTER":89.7382,"MEAN_ANOMALY":270.3762,"EPHEMERIS_TYPE":0,"CLASSIFICATION_TYPE":"U","NORAD_CAT_ID":63051,"ELEMENT_SET_NO":999,"REV_AT_EPOCH":3572,"BSTAR":4.4539286e-5,"MEAN_MOTION_DOT":9.59e-6,"MEAN_MOTION_DDOT":0},{"OBJECT_NAME":"STARLINK-11550 [DTC]","OBJECT_ID":"2025-035A","EPOCH":"2025-10-09T04:09:47.389824","MEAN_MOTION":15.70860469,"ECCENTRICITY":0.0001477,"INCLINATION":42.9989,"RA_OF_ASC_NODE":208.4231,"ARG_OF_PERICENTER":252.024,"MEAN_ANOMALY":108.0467,"EPHEMERIS_TYPE":0,"CLASSIFICATION_TYPE":"U","NORAD_CAT_ID":63052,"ELEMENT_SET_NO":999,"REV_AT_EPOCH":3739,"BSTAR":0.00137107,"MEAN_MOTION_DOT":0.00179482,"MEAN_MOTION_DDOT":0},{"OBJECT_NAME":"STARLINK-11563 [DTC]","OBJECT_ID":"2025-035B","EPOCH":"2025-10-08T23:42:44.928864","MEAN_MOTION":15.70878124,"ECCENTRICITY":0.00017171,"INCLINATION":43.0001,"RA_OF_ASC_NODE":209.618,"ARG_OF_PERICENTER":259.4027,"MEAN_ANOMALY":100.6648,"EPHEMERIS_TYPE":0,"CLASSIFICATION_TYPE":"U","NORAD_CAT_ID":63053,"ELEMENT_SET_NO":999,"REV_AT_EPOCH":3725,"BSTAR":0.0014967358,"MEAN_MOTION_DOT":0.00196527,"MEAN_MOTION_DDOT":0},{"OBJECT_NAME":"STARLINK-11347 [DTC]","OBJECT_ID":"2025-035C","EPOCH":"2025-10-08T22:57:03.635712","MEAN_MOTION":15.70848996,"ECCENTRICITY":0.00037872,"INCLINATION":43.0014,"RA_OF_ASC_NODE":210.2542,"ARG_OF_PERICENTER":288.5853,"MEAN_ANOMALY":71.4603,"EPHEMERIS_TYPE":0,"CLASSIFICATION_TYPE":"U","NORAD_CAT_ID":63054,"ELEMENT_SET_NO":999,"REV_AT_EPOCH":3735,"BSTAR":0.0015152951,"MEAN_MOTION_DOT":0.0019882,"MEAN_MOTION_DDOT":0},{"OBJECT_NAME":"STARLINK-11558 [DTC]","OBJECT_ID":"2025-035D","EPOCH":"2025-10-09T03:46:50.929824","MEAN_MOTION":15.70891394,"ECCENTRICITY":0.00021289,"INCLINATION":42.9991,"RA_OF_ASC_NODE":208.2947,"ARG_OF_PERICENTER":277.4683,"MEAN_ANOMALY":82.5943,"EPHEMERIS_TYPE":0,"CLASSIFICATION_TYPE":"U","NORAD_CAT_ID":63055,"ELEMENT_SET_NO":999,"REV_AT_EPOCH":3728,"BSTAR":0.001613866,"MEAN_MOTION_DOT":0.00212475,"MEAN_MOTION_DDOT":0},{"OBJECT_NAME":"STARLINK-11392 [DTC]","OBJECT_ID":"2025-035E","EPOCH":"2025-10-09T04:48:00.716256","MEAN_MOTION":15.70856151,"ECCENTRICITY":0.00021981,"INCLINATION":43.0004,"RA_OF_ASC_NODE":208.6362,"ARG_OF_PERICENTER":258.0007,"MEAN_ANOMALY":102.0614,"EPHEMERIS_TYPE":0,"CLASSIFICATION_TYPE":"U","NORAD_CAT_ID":63056,"ELEMENT_SET_NO":999,"REV_AT_EPOCH":3739,"BSTAR":0.0013202113,"MEAN_MOTION_DOT":0.00172639,"MEAN_MOTION_DDOT":0},{"OBJECT_NAME":"STARLINK-11406 [DTC]","OBJECT_ID":"2025-035F","EPOCH":"2025-10-09T04:25:05.027808","MEAN_MOTION":15.70855592,"ECCENTRICITY":0.00010359,"INCLINATION":43.0006,"RA_OF_ASC_NODE":208.5076,"ARG_OF_PERICENTER":271.6903,"MEAN_ANOMALY":88.3846,"EPHEMERIS_TYPE":0,"CLASSIFICATION_TYPE":"U","NORAD_CAT_ID":63057,"ELEMENT_SET_NO":999,"REV_AT_EPOCH":3727,"BSTAR":0.0014377777,"MEAN_MOTION_DOT":0.00188401,"MEAN_MOTION_DDOT":0},{"OBJECT_NAME":"STARLINK-11418 [DTC]","OBJECT_ID":"2025-035G","EPOCH":"2025-10-09T06:42:30.908160","MEAN_MOTION":15.70865241,"ECCENTRICITY":0.00012571,"INCLINATION":42.9991,"RA_OF_ASC_NODE":208.3804,"ARG_OF_PERICENTER":286.8722,"MEAN_ANOMALY":73.2008,"EPHEMERIS_TYPE":0,"CLASSIFICATION_TYPE":"U","NORAD_CAT_ID":63058,"ELEMENT_SET_NO":999,"REV_AT_EPOCH":3728,"BSTAR":0.0012758552,"MEAN_MOTION_DOT":0.00166762,"MEAN_MOTION_DDOT":0},{"OBJECT_NAME":"STARLINK-11509 [DTC]","OBJECT_ID":"2025-035H","EPOCH":"2025-10-09T01:52:32.331072","MEAN_MOTION":15.71174989,"ECCENTRICITY":0.00023213,"INCLINATION":43.0001,"RA_OF_ASC_NODE":209.4423,"ARG_OF_PERICENTER":226.2273,"MEAN_ANOMALY":133.8403,"EPHEMERIS_TYPE":0,"CLASSIFICATION_TYPE":"U","NORAD_CAT_ID":63059,"ELEMENT_SET_NO":999,"REV_AT_EPOCH":3725,"BSTAR":0.0035530532,"MEAN_MOTION_DOT":0.00490229,"MEAN_MOTION_DDOT":0},{"OBJECT_NAME":"STARLINK-11403 [DTC]","OBJECT_ID":"2025-035J","EPOCH":"2025-10-08T04:15:23.478912","MEAN_MOTION":15.70934374,"ECCENTRICITY":0.00026739,"INCLINATION":43.0028,"RA_OF_ASC_NODE":214.7231,"ARG_OF_PERICENTER":278.0001,"MEAN_ANOMALY":82.0563,"EPHEMERIS_TYPE":0,"CLASSIFICATION_TYPE":"U","NORAD_CAT_ID":63060,"ELEMENT_SET_NO":999,"REV_AT_EPOCH":3723,"BSTAR":0.001721421,"MEAN_MOTION_DOT":0.00227496,"MEAN_MOTION_DDOT":0},{"OBJECT_NAME":"STARLINK-11409 [DTC]","OBJECT_ID":"2025-035K","EPOCH":"2025-10-09T04:49:19.633152","MEAN_MOTION":15.7084926,"ECCENTRICITY":0.00016752,"INCLINATION":43.0001,"RA_OF_ASC_NODE":208.6394,"ARG_OF_PERICENTER":277.4484,"MEAN_ANOMALY":82.6193,"EPHEMERIS_TYPE":0,"CLASSIFICATION_TYPE":"U","NORAD_CAT_ID":63061,"ELEMENT_SET_NO":999,"REV_AT_EPOCH":3739,"BSTAR":0.001156222,"MEAN_MOTION_DOT":0.00150689,"MEAN_MOTION_DDOT":0},{"OBJECT_NAME":"STARLINK-11412 [DTC]","OBJECT_ID":"2025-035L","EPOCH":"2025-10-09T04:32:43.213920","MEAN_MOTION":15.70933838,"ECCENTRICITY":0.0002322,"INCLINATION":43.0003,"RA_OF_ASC_NODE":208.5446,"ARG_OF_PERICENTER":256.7413,"MEAN_ANOMALY":103.3196,"EPHEMERIS_TYPE":0,"CLASSIFICATION_TYPE":"U","NORAD_CAT_ID":63062,"ELEMENT_SET_NO":999,"REV_AT_EPOCH":3739,"BSTAR":0.0025540178,"MEAN_MOTION_DOT":0.00342483,"MEAN_MOTION_DDOT":0},{"OBJECT_NAME":"STARLINK-11399 [DTC]","OBJECT_ID":"2025-035M","EPOCH":"2025-10-09T02:30:34.789248","MEAN_MOTION":15.70872426,"ECCENTRICITY":0.00017334,"INCLINATION":43.0005,"RA_OF_ASC_NODE":208.7573,"ARG_OF_PERICENTER":266.4169,"MEAN_ANOMALY":93.65,"EPHEMERIS_TYPE":0,"CLASSIFICATION_TYPE":"U","NORAD_CAT_ID":63063,"ELEMENT_SET_NO":999,"REV_AT_EPOCH":3738,"BSTAR":0.0013936266,"MEAN_MOTION_DOT":0.00182605,"MEAN_MOTION_DDOT":0},{"OBJECT_NAME":"STARLINK-11408 [DTC]","OBJECT_ID":"2025-035N","EPOCH":"2025-10-09T02:22:56.177184","MEAN_MOTION":15.70823327,"ECCENTRICITY":0.00015543,"INCLINATION":43.0006,"RA_OF_ASC_NODE":208.7139,"ARG_OF_PERICENTER":275.5605,"MEAN_ANOMALY":84.5085,"EPHEMERIS_TYPE":0,"CLASSIFICATION_TYPE":"U","NORAD_CAT_ID":63064,"ELEMENT_SET_NO":999,"REV_AT_EPOCH":3738,"BSTAR":0.0021745537,"MEAN_MOTION_DOT":0.00288271,"MEAN_MOTION_DDOT":0},{"OBJECT_NAME":"STARLINK-33635","OBJECT_ID":"2025-035P","EPOCH":"2025-10-09T06:40:23.912256","MEAN_MOTION":15.27570786,"ECCENTRICITY":0.00013202,"INCLINATION":43.0007,"RA_OF_ASC_NODE":282.1451,"ARG_OF_PERICENTER":267.4732,"MEAN_ANOMALY":92.5969,"EPHEMERIS_TYPE":0,"CLASSIFICATION_TYPE":"U","NORAD_CAT_ID":63065,"ELEMENT_SET_NO":999,"REV_AT_EPOCH":3657,"BSTAR":0.0011182258,"MEAN_MOTION_DOT":0.00030628,"MEAN_MOTION_DDOT":0}]
